[{"OBJECT_NAME":"GRUS-1E","OBJECT_ID":"2021-022D","EPOCH":"2026-03-09T21:59:56.793984","MEAN_MOTION":14.99580708,"ECCENTRICITY":0.00128752,"INCLINATION":97.5572,"RA_OF_ASC_NODE":316.384,"ARG_OF_PERICENTER":314.1526,"MEAN_ANOMALY":45.8638,"EPHEMERIS_TYPE":0,"CLASSIFICATION_TYPE":"U","NORAD_CAT_ID":47935,"ELEMENT_SET_NO":999,"REV_AT_EPOCH":27107,"BSTAR":0.00017718433,"MEAN_MOTION_DOT":2.125e-5,"MEAN_MOTION_DDOT":0},{"OBJECT_NAME":"STARLINK-5494","OBJECT_ID":"2023-021Y","EPOCH":"2026-03-09T16:51:14.611680","MEAN_MOTION":14.98329625,"ECCENTRICITY":0.00030187,"INCLINATION":70.0012,"RA_OF_ASC_NODE":184.4107,"ARG_OF_PERICENTER":264.8405,"MEAN_ANOMALY":95.2409,"EPHEMERIS_TYPE":0,"CLASSIFICATION_TYPE":"U","NORAD_CAT_ID":55650,"ELEMENT_SET_NO":999,"REV_AT_EPOCH":16879,"BSTAR":2.6766873e-5,"MEAN_MOTION_DOT":2.26e-6,"MEAN_MOTION_DDOT":0}]
